{
    "links": {
        "self": "http://www.neowsapp.com/rest/v1/neo/3841716?api_key=iIulBulltgU6a56xZRHN4H3l9WmuAYTsLGpBGhQ2"
    },
    "id": "3841716",
    "neo_reference_id": "3841716",
    "name": "(2019 JS1)",
    "designation": "2019 JS1",
    "nasa_jpl_url": "http://ssd.jpl.nasa.gov/sbdb.cgi?sstr=3841716",
    "absolute_magnitude_h": 25.4,
    "estimated_diameter": {
        "kilometers": {
            "estimated_diameter_min": 0.022108281,
            "estimated_diameter_max": 0.0494356193
        },
        "meters": {
            "estimated_diameter_min": 22.1082810359,
            "estimated_diameter_max": 49.435619262
        },
        "miles": {
            "estimated_diameter_min": 0.0137374447,
            "estimated_diameter_max": 0.0307178602
        },
        "feet": {
            "estimated_diameter_min": 72.5337327539,
            "estimated_diameter_max": 162.1903570994
        }
    },
    "is_potentially_hazardous_asteroid": false,
    "close_approach_data": [
        {
            "close_approach_date": "2019-04-29",
            "close_approach_date_full": "2019-Apr-29 20:44",
            "epoch_date_close_approach": 1556570640000,
            "relative_velocity": {
                "kilometers_per_second": "5.3033142126",
                "kilometers_per_hour": "19091.9311655223",
                "miles_per_hour": "11862.9835622658"
            },
            "miss_distance": {
                "astronomical": "0.0487018094",
                "lunar": "18.9450038566",
                "kilometers": "7285686.951385978",
                "miles": "4527115.9464353764"
            },
            "orbiting_body": "Earth"
        },
        {
            "close_approach_date": "2086-03-31",
            "close_approach_date_full": "2086-Mar-31 18:21",
            "epoch_date_close_approach": 3668437260000,
            "relative_velocity": {
                "kilometers_per_second": "10.6144998592",
                "kilometers_per_hour": "38212.199493277",
                "miles_per_hour": "23743.574735142"
            },
            "miss_distance": {
                "astronomical": "0.069807585",
                "lunar": "27.155150565",
                "kilometers": "10443066.02584395",
                "miles": "6489020.32858851"
            },
            "orbiting_body": "Mars"
        }
    ],
    "orbital_data": {
        "orbit_id": "3",
        "orbit_determination_date": "2019-05-08 07:17:35",
        "first_observation_date": "2019-05-02",
        "last_observation_date": "2019-05-08",
        "data_arc_in_days": 6,
        "observations_used": 36,
        "orbit_uncertainty": "8",
        "minimum_orbit_intersection": ".0475492",
        "jupiter_tisserand_invariant": "3.854",
        "epoch_osculation": "2458606.5",
        "eccentricity": ".4379807877668351",
        "semi_major_axis": "1.875350805337432",
        "inclination": "1.490501003432813",
        "ascending_node_longitude": "63.95314387650048",
        "orbital_period": "938.0418312185548",
        "perihelion_distance": "1.053983182276575",
        "perihelion_argument": "155.0235947813598",
        "aphelion_distance": "2.69671842839829",
        "perihelion_time": "2458602.999016146240",
        "mean_anomaly": "1.343601261061405",
        "mean_motion": ".3837781941263165",
        "equinox": "J2000",
        "orbit_class": {
            "orbit_class_type": "AMO",
            "orbit_class_description": "Near-Earth asteroid orbits similar to that of 1221 Amor",
            "orbit_class_range": "1.017 AU < q (perihelion) < 1.3 AU"
        }
    },
    "is_sentry_object": false
}